ONEWEB-0012             
1 44057U 19010A   25359.75210648  .00000009  00000+0 -94906-5 0  9990
2 44057  87.9039 263.3234 0002023  79.7340 280.4019 13.16592557328740
ONEWEB-0010             
1 44058U 19010B   25359.70144981  .00000023  00000+0  27082-4 0  9997
2 44058  87.9044 263.3246 0001584  60.9335 299.1954 13.16592300328782
ONEWEB-0008             
1 44059U 19010C   25359.72677753  .00000156  00000+0  37553-3 0  9998
2 44059  87.9049 263.3167 0001573  81.7424 278.3885 13.16592775328900
ONEWEB-0007             
1 44060U 19010D   25359.54805078 -.00000095  00000+0 -28648-3 0  9992
2 44060  87.9004 293.8779 0002058  70.5274 289.6078 13.15549052328546
ONEWEB-0006             
1 44061U 19010E   25359.55200933  .00000003  00000+0 -24779-4 0  9993
2 44061  87.9010 293.8245 0001793  69.3220 290.8103 13.15548184328597
ONEWEB-0011             
1 44062U 19010F   25359.82453742  .00000120  00000+0  28519-3 0  9996
2 44062  87.9012 293.7792 0001563  76.4513 283.6792 13.15550957328624
ONEWEB-0013             
1 45131U 20008A   25359.71647623  .00000333  00000+0  93086-3 0  9991
2 45131  87.8501  87.8662 0002687 106.2375 253.9047 13.09438046283369
ONEWEB-0017             
1 45132U 20008B   25359.74456426  .00000368  00000+0  10182-2 0  9997
2 45132  87.8789  70.8508 0001595  98.1827 261.9482 13.10370177285239
ONEWEB-0020             
1 45133U 20008C   25359.71467652  .00000086  00000+0  21103-3 0  9991
2 45133  87.8802  70.8444 0001637 109.2028 250.9276 13.10376570285624
ONEWEB-0021             
1 45134U 20008D   25359.72962932  .00000694  00000+0  19503-2 0  9999
2 45134  87.8794  70.8702 0001757 100.2054 259.9272 13.10373677285939
ONEWEB-0023             
1 45136U 20008F   25359.74041392  .00000542  00000+0  15174-2 0  9993
2 45136  87.8793  70.8482 0001932 105.6500 254.4841 13.10371658285361
ONEWEB-0024             
1 45137U 20008G   25359.71301292 -.00000053  00000+0 -18799-3 0  9995
2 45137  87.8822  70.8271 0001716 101.5233 258.6087 13.10376501285527
ONEWEB-0025             
1 45138U 20008H   25359.73045664  .00000691  00000+0  19423-2 0  9996
2 45138  87.8808  70.8252 0002054 103.5072 256.6284 13.10373460285854
ONEWEB-0026             
1 45139U 20008J   25359.58339054 -.00000441  00000+0 -12797-2 0  9991
2 45139  87.8852  55.6335 0001720 102.7416 257.3905 13.11416955288353
ONEWEB-0028             
1 45140U 20008K   25359.61648100  .00000567  00000+0  15644-2 0  9993
2 45140  87.8835  55.6398 0002403 101.5593 258.5805 13.11415008285871
ONEWEB-0032             
1 45141U 20008L   25359.74621891  .00000279  00000+0  76384-3 0  9995
2 45141  87.8796  70.8504 0001936 104.9376 255.1966 13.10370430285589
ONEWEB-0033             
1 45142U 20008M   25359.72132115  .00000460  00000+0  12826-2 0  9992
2 45142  87.8800  70.8673 0001211  95.9923 264.1342 13.10375706285495
