[{"OBJECT_NAME":"ONEWEB-0012","OBJECT_ID":"2019-010A","EPOCH":"2025-12-25T18:03:01.999872","MEAN_MOTION":13.16592557,"ECCENTRICITY":0.0002023,"INCLINATION":87.9039,"RA_OF_ASC_NODE":263.3234,"ARG_OF_PERICENTER":79.734,"MEAN_ANOMALY":280.4019,"EPHEMERIS_TYPE":0,"CLASSIFICATION_TYPE":"U","NORAD_CAT_ID":44057,"ELEMENT_SET_NO":999,"REV_AT_EPOCH":32874,"BSTAR":-9.4906e-6,"MEAN_MOTION_DOT":9.0e-8,"MEAN_MOTION_DDOT":0},{"OBJECT_NAME":"ONEWEB-0010","OBJECT_ID":"2019-010B","EPOCH":"2025-12-25T16:50:05.263584","MEAN_MOTION":13.165923,"ECCENTRICITY":0.0001584,"INCLINATION":87.9044,"RA_OF_ASC_NODE":263.3246,"ARG_OF_PERICENTER":60.9335,"MEAN_ANOMALY":299.1954,"EPHEMERIS_TYPE":0,"CLASSIFICATION_TYPE":"U","NORAD_CAT_ID":44058,"ELEMENT_SET_NO":999,"REV_AT_EPOCH":32878,"BSTAR":2.7082e-5,"MEAN_MOTION_DOT":2.3e-7,"MEAN_MOTION_DDOT":0},{"OBJECT_NAME":"ONEWEB-0008","OBJECT_ID":"2019-010C","EPOCH":"2025-12-25T17:26:33.578592","MEAN_MOTION":13.16592775,"ECCENTRICITY":0.0001573,"INCLINATION":87.9049,"RA_OF_ASC_NODE":263.3167,"ARG_OF_PERICENTER":81.7424,"MEAN_ANOMALY":278.3885,"EPHEMERIS_TYPE":0,"CLASSIFICATION_TYPE":"U","NORAD_CAT_ID":44059,"ELEMENT_SET_NO":999,"REV_AT_EPOCH":32890,"BSTAR":0.00037553,"MEAN_MOTION_DOT":1.56e-6,"MEAN_MOTION_DDOT":0},{"OBJECT_NAME":"ONEWEB-0007","OBJECT_ID":"2019-010D","EPOCH":"2025-12-25T13:09:11.587392","MEAN_MOTION":13.15549052,"ECCENTRICITY":0.0002058,"INCLINATION":87.9004,"RA_OF_ASC_NODE":293.8779,"ARG_OF_PERICENTER":70.5274,"MEAN_ANOMALY":289.6078,"EPHEMERIS_TYPE":0,"CLASSIFICATION_TYPE":"U","NORAD_CAT_ID":44060,"ELEMENT_SET_NO":999,"REV_AT_EPOCH":32854,"BSTAR":-0.00028648,"MEAN_MOTION_DOT":-9.5e-7,"MEAN_MOTION_DDOT":0},{"OBJECT_NAME":"ONEWEB-0006","OBJECT_ID":"2019-010E","EPOCH":"2025-12-25T13:14:53.606112","MEAN_MOTION":13.15548184,"ECCENTRICITY":0.0001793,"INCLINATION":87.901,"RA_OF_ASC_NODE":293.8245,"ARG_OF_PERICENTER":69.322,"MEAN_ANOMALY":290.8103,"EPHEMERIS_TYPE":0,"CLASSIFICATION_TYPE":"U","NORAD_CAT_ID":44061,"ELEMENT_SET_NO":999,"REV_AT_EPOCH":32859,"BSTAR":-2.4779e-5,"MEAN_MOTION_DOT":3.0e-8,"MEAN_MOTION_DDOT":0},{"OBJECT_NAME":"ONEWEB-0011","OBJECT_ID":"2019-010F","EPOCH":"2025-12-25T19:47:20.033088","MEAN_MOTION":13.15550957,"ECCENTRICITY":0.0001563,"INCLINATION":87.9012,"RA_OF_ASC_NODE":293.7792,"ARG_OF_PERICENTER":76.4513,"MEAN_ANOMALY":283.6792,"EPHEMERIS_TYPE":0,"CLASSIFICATION_TYPE":"U","NORAD_CAT_ID":44062,"ELEMENT_SET_NO":999,"REV_AT_EPOCH":32862,"BSTAR":0.00028519,"MEAN_MOTION_DOT":1.2e-6,"MEAN_MOTION_DDOT":0},{"OBJECT_NAME":"ONEWEB-0013","OBJECT_ID":"2020-008A","EPOCH":"2025-12-25T17:11:43.546272","MEAN_MOTION":13.09438046,"ECCENTRICITY":0.0002687,"INCLINATION":87.8501,"RA_OF_ASC_NODE":87.8662,"ARG_OF_PERICENTER":106.2375,"MEAN_ANOMALY":253.9047,"EPHEMERIS_TYPE":0,"CLASSIFICATION_TYPE":"U","NORAD_CAT_ID":45131,"ELEMENT_SET_NO":999,"REV_AT_EPOCH":28336,"BSTAR":0.00093086,"MEAN_MOTION_DOT":3.33e-6,"MEAN_MOTION_DDOT":0},{"OBJECT_NAME":"ONEWEB-0017","OBJECT_ID":"2020-008B","EPOCH":"2025-12-25T17:52:10.352064","MEAN_MOTION":13.10370177,"ECCENTRICITY":0.0001595,"INCLINATION":87.8789,"RA_OF_ASC_NODE":70.8508,"ARG_OF_PERICENTER":98.1827,"MEAN_ANOMALY":261.9482,"EPHEMERIS_TYPE":0,"CLASSIFICATION_TYPE":"U","NORAD_CAT_ID":45132,"ELEMENT_SET_NO":999,"REV_AT_EPOCH":28523,"BSTAR":0.0010182,"MEAN_MOTION_DOT":3.68e-6,"MEAN_MOTION_DDOT":0},{"OBJECT_NAME":"ONEWEB-0020","OBJECT_ID":"2020-008C","EPOCH":"2025-12-25T17:09:08.051328","MEAN_MOTION":13.1037657,"ECCENTRICITY":0.0001637,"INCLINATION":87.8802,"RA_OF_ASC_NODE":70.8444,"ARG_OF_PERICENTER":109.2028,"MEAN_ANOMALY":250.9276,"EPHEMERIS_TYPE":0,"CLASSIFICATION_TYPE":"U","NORAD_CAT_ID":45133,"ELEMENT_SET_NO":999,"REV_AT_EPOCH":28562,"BSTAR":0.00021103,"MEAN_MOTION_DOT":8.6e-7,"MEAN_MOTION_DDOT":0},{"OBJECT_NAME":"ONEWEB-0021","OBJECT_ID":"2020-008D","EPOCH":"2025-12-25T17:30:39.973248","MEAN_MOTION":13.10373677,"ECCENTRICITY":0.0001757,"INCLINATION":87.8794,"RA_OF_ASC_NODE":70.8702,"ARG_OF_PERICENTER":100.2054,"MEAN_ANOMALY":259.9272,"EPHEMERIS_TYPE":0,"CLASSIFICATION_TYPE":"U","NORAD_CAT_ID":45134,"ELEMENT_SET_NO":999,"REV_AT_EPOCH":28593,"BSTAR":0.0019503,"MEAN_MOTION_DOT":6.94e-6,"MEAN_MOTION_DDOT":0},{"OBJECT_NAME":"ONEWEB-0023","OBJECT_ID":"2020-008F","EPOCH":"2025-12-25T17:46:11.762688","MEAN_MOTION":13.10371658,"ECCENTRICITY":0.0001932,"INCLINATION":87.8793,"RA_OF_ASC_NODE":70.8482,"ARG_OF_PERICENTER":105.65,"MEAN_ANOMALY":254.4841,"EPHEMERIS_TYPE":0,"CLASSIFICATION_TYPE":"U","NORAD_CAT_ID":45136,"ELEMENT_SET_NO":999,"REV_AT_EPOCH":28536,"BSTAR":0.0015174,"MEAN_MOTION_DOT":5.42e-6,"MEAN_MOTION_DDOT":0},{"OBJECT_NAME":"ONEWEB-0024","OBJECT_ID":"2020-008G","EPOCH":"2025-12-25T17:06:44.316288","MEAN_MOTION":13.10376501,"ECCENTRICITY":0.0001716,"INCLINATION":87.8822,"RA_OF_ASC_NODE":70.8271,"ARG_OF_PERICENTER":101.5233,"MEAN_ANOMALY":258.6087,"EPHEMERIS_TYPE":0,"CLASSIFICATION_TYPE":"U","NORAD_CAT_ID":45137,"ELEMENT_SET_NO":999,"REV_AT_EPOCH":28552,"BSTAR":-0.00018799,"MEAN_MOTION_DOT":-5.3e-7,"MEAN_MOTION_DDOT":0},{"OBJECT_NAME":"ONEWEB-0025","OBJECT_ID":"2020-008H","EPOCH":"2025-12-25T17:31:51.453696","MEAN_MOTION":13.1037346,"ECCENTRICITY":0.0002054,"INCLINATION":87.8808,"RA_OF_ASC_NODE":70.8252,"ARG_OF_PERICENTER":103.5072,"MEAN_ANOMALY":256.6284,"EPHEMERIS_TYPE":0,"CLASSIFICATION_TYPE":"U","NORAD_CAT_ID":45138,"ELEMENT_SET_NO":999,"REV_AT_EPOCH":28585,"BSTAR":0.0019423,"MEAN_MOTION_DOT":6.91e-6,"MEAN_MOTION_DDOT":0},{"OBJECT_NAME":"ONEWEB-0026","OBJECT_ID":"2020-008J","EPOCH":"2025-12-25T14:00:04.942656","MEAN_MOTION":13.11416955,"ECCENTRICITY":0.000172,"INCLINATION":87.8852,"RA_OF_ASC_NODE":55.6335,"ARG_OF_PERICENTER":102.7416,"MEAN_ANOMALY":257.3905,"EPHEMERIS_TYPE":0,"CLASSIFICATION_TYPE":"U","NORAD_CAT_ID":45139,"ELEMENT_SET_NO":999,"REV_AT_EPOCH":28835,"BSTAR":-0.0012797,"MEAN_MOTION_DOT":-4.41e-6,"MEAN_MOTION_DDOT":0},{"OBJECT_NAME":"ONEWEB-0028","OBJECT_ID":"2020-008K","EPOCH":"2025-12-25T14:47:43.958400","MEAN_MOTION":13.11415008,"ECCENTRICITY":0.0002403,"INCLINATION":87.8835,"RA_OF_ASC_NODE":55.6398,"ARG_OF_PERICENTER":101.5593,"MEAN_ANOMALY":258.5805,"EPHEMERIS_TYPE":0,"CLASSIFICATION_TYPE":"U","NORAD_CAT_ID":45140,"ELEMENT_SET_NO":999,"REV_AT_EPOCH":28587,"BSTAR":0.0015644,"MEAN_MOTION_DOT":5.67e-6,"MEAN_MOTION_DDOT":0},{"OBJECT_NAME":"ONEWEB-0032","OBJECT_ID":"2020-008L","EPOCH":"2025-12-25T17:54:33.313824","MEAN_MOTION":13.1037043,"ECCENTRICITY":0.0001936,"INCLINATION":87.8796,"RA_OF_ASC_NODE":70.8504,"ARG_OF_PERICENTER":104.9376,"MEAN_ANOMALY":255.1966,"EPHEMERIS_TYPE":0,"CLASSIFICATION_TYPE":"U","NORAD_CAT_ID":45141,"ELEMENT_SET_NO":999,"REV_AT_EPOCH":28558,"BSTAR":0.00076384,"MEAN_MOTION_DOT":2.79e-6,"MEAN_MOTION_DDOT":0},{"OBJECT_NAME":"ONEWEB-0033","OBJECT_ID":"2020-008M","EPOCH":"2025-12-25T17:18:42.147360","MEAN_MOTION":13.10375706,"ECCENTRICITY":0.0001211,"INCLINATION":87.88,"RA_OF_ASC_NODE":70.8673,"ARG_OF_PERICENTER":95.9923,"MEAN_ANOMALY":264.1342,"EPHEMERIS_TYPE":0,"CLASSIFICATION_TYPE":"U","NORAD_CAT_ID":45142,"ELEMENT_SET_NO":999,"REV_AT_EPOCH":28549,"BSTAR":0.0012826,"MEAN_MOTION_DOT":4.6e-6,"MEAN_MOTION_DDOT":0}]
